start=new Date('2022-09-18T00:00:00.000Z').valueOf();
sats=[{"GP_ID":"212868997","MEAN_MOTION":"15.06399183","LAUNCH_DATE":"2021-05-04","MEAN_MOTION_DDOT":"0.0000000000000","REV_AT_EPOCH":"7584","SEMIMAJOR_AXIS":"6925.351","CLASSIFICATION_TYPE":"U","APOAPSIS":"548.083","EPOCH":"2022-09-17T19:08:07.195200","INCLINATION":"53.0553","MEAN_ANOMALY":"277.5035","RCS_SIZE":"LARGE","COUNTRY_CODE":"US","DECAY_DATE":null,"SITE":"AFETR","PERIAPSIS":"546.349","TLE_LINE2":"2 48363  53.0553 292.9073 0001252  82.6096 277.5035 15.06399183 75848","ARG_OF_PERICENTER":"82.6096","OBJECT_NAME":"STARLINK-2626","MEAN_MOTION_DOT":"0.00000952","TLE_LINE1":"1 48363U 21038L   22260.79730550  .00000952  00000-0  82809-4 0  9993","REF_FRAME":"TEME","OBJECT_ID":"2021-038L","ECCENTRICITY":"0.00012520","PERIOD":"95.592","EPHEMERIS_TYPE":"0","FILE":"3576621","MEAN_ELEMENT_THEORY":"SGP4","TIME_SYSTEM":"UTC","OBJECT_TYPE":"PAYLOAD","ELEMENT_SET_NO":"999","BSTAR":"0.00008280900000","RA_OF_ASC_NODE":"292.9073","CENTER_NAME":"EARTH","NORAD_CAT_ID":"48363"},{"OBJECT_TYPE":"PAYLOAD","ELEMENT_SET_NO":"999","BSTAR":"0.00002871900000","RA_OF_ASC_NODE":"293.0379","CENTER_NAME":"EARTH","NORAD_CAT_ID":"48364","PERIOD":"95.592","EPHEMERIS_TYPE":"0","FILE":"3576621","MEAN_ELEMENT_THEORY":"SGP4","TIME_SYSTEM":"UTC","TLE_LINE1":"1 48364U 21038M   22260.81207388  .00000146  00000-0  28719-4 0  9990","REF_FRAME":"TEME","OBJECT_ID":"2021-038M","ECCENTRICITY":"0.00014970","OBJECT_NAME":"STARLINK-2611","ARG_OF_PERICENTER":"70.2366","MEAN_MOTION_DOT":"0.00000146","COUNTRY_CODE":"US","SITE":"AFETR","DECAY_DATE":null,"PERIAPSIS":"546.163","TLE_LINE2":"2 48364  53.0555 293.0379 0001497  70.2366 289.8784 15.06404579 75849","EPOCH":"2022-09-17T19:29:23.183232","INCLINATION":"53.0555","MEAN_ANOMALY":"289.8784","RCS_SIZE":"LARGE","SEMIMAJOR_AXIS":"6925.335","CLASSIFICATION_TYPE":"U","APOAPSIS":"548.236","GP_ID":"212869247","MEAN_MOTION":"15.06404579","MEAN_MOTION_DDOT":"0.0000000000000","LAUNCH_DATE":"2021-05-04","REV_AT_EPOCH":"7584"},{"ECCENTRICITY":"0.00013340","OBJECT_ID":"2021-038N","TLE_LINE1":"1 48365U 21038N   22260.50612704  .00000101  00000-0  25708-4 0  9995","REF_FRAME":"TEME","MEAN_MOTION_DOT":"0.00000101","ARG_OF_PERICENTER":"87.9644","OBJECT_NAME":"STARLINK-2608","CENTER_NAME":"EARTH","NORAD_CAT_ID":"48365","RA_OF_ASC_NODE":"294.2067","ELEMENT_SET_NO":"999","BSTAR":"0.00002570800000","OBJECT_TYPE":"PAYLOAD","MEAN_ELEMENT_THEORY":"SGP4","FILE":"3576375","TIME_SYSTEM":"UTC","EPHEMERIS_TYPE":"0","PERIOD":"95.593","APOAPSIS":"548.161","SEMIMAJOR_AXIS":"6925.372","CLASSIFICATION_TYPE":"U","LAUNCH_DATE":"2021-05-04","MEAN_MOTION_DDOT":"0.0000000000000","REV_AT_EPOCH":"7580","MEAN_MOTION":"15.06392312","GP_ID":"212813021","TLE_LINE2":"2 48365  53.0545 294.2067 0001334  87.9644 272.1498 15.06392312 75804","DECAY_DATE":null,"SITE":"AFETR","PERIAPSIS":"546.313","COUNTRY_CODE":"US","RCS_SIZE":"LARGE","INCLINATION":"53.0545","MEAN_ANOMALY":"272.1498","EPOCH":"2022-09-17T12:08:49.376256"},{"ECCENTRICITY":"0.00016040","OBJECT_ID":"2021-038P","TLE_LINE1":"1 48366U 21038P   22260.36098446  .00005252  00000-0  37114-3 0  9996","REF_FRAME":"TEME","MEAN_MOTION_DOT":"0.00005252","ARG_OF_PERICENTER":"91.5648","OBJECT_NAME":"STARLINK-2631","CENTER_NAME":"EARTH","NORAD_CAT_ID":"48366","RA_OF_ASC_NODE":"289.8720","ELEMENT_SET_NO":"999","BSTAR":"0.00037114000000","OBJECT_TYPE":"PAYLOAD","MEAN_ELEMENT_THEORY":"SGP4","FILE":"3576375","TIME_SYSTEM":"UTC","EPHEMERIS_TYPE":"0","PERIOD":"95.592","APOAPSIS":"548.299","SEMIMAJOR_AXIS":"6925.323","CLASSIFICATION_TYPE":"U","LAUNCH_DATE":"2021-05-04","REV_AT_EPOCH":"7584","MEAN_MOTION_DDOT":"0.0000000000000","MEAN_MOTION":"15.06408381","GP_ID":"212813264","TLE_LINE2":"2 48366  53.0534 289.8720 0001604  91.5648 268.5525 15.06408381 75842","DECAY_DATE":null,"SITE":"AFETR","PERIAPSIS":"546.077","COUNTRY_CODE":"US","RCS_SIZE":"LARGE","INCLINATION":"53.0534","MEAN_ANOMALY":"268.5525","EPOCH":"2022-09-17T08:39:49.057344"},{"OBJECT_NAME":"STARLINK-2643","ARG_OF_PERICENTER":"74.9863","MEAN_MOTION_DOT":"-0.00000586","ECCENTRICITY":"0.00012970","REF_FRAME":"TEME","TLE_LINE1":"1 48367U 21038Q   22260.48999927 -.00000586  00000-0 -20424-4 0  9998","OBJECT_ID":"2021-038Q","TIME_SYSTEM":"UTC","MEAN_ELEMENT_THEORY":"SGP4","FILE":"3576375","PERIOD":"95.593","EPHEMERIS_TYPE":"0","RA_OF_ASC_NODE":"289.2885","NORAD_CAT_ID":"48367","CENTER_NAME":"EARTH","OBJECT_TYPE":"PAYLOAD","ELEMENT_SET_NO":"999","BSTAR":"-0.00002042400000","REV_AT_EPOCH":"7586","LAUNCH_DATE":"2021-05-04","MEAN_MOTION_DDOT":"0.0000000000000","GP_ID":"212812024","MEAN_MOTION":"15.06391478","APOAPSIS":"548.138","CLASSIFICATION_TYPE":"U","SEMIMAJOR_AXIS":"6925.375","RCS_SIZE":"LARGE","EPOCH":"2022-09-17T11:45:35.936928","MEAN_ANOMALY":"285.1270","INCLINATION":"53.0538","TLE_LINE2":"2 48367  53.0538 289.2885 0001297  74.9863 285.1270 15.06391478 75867","COUNTRY_CODE":"US","PERIAPSIS":"546.341","SITE":"AFETR","DECAY_DATE":null},{"CLASSIFICATION_TYPE":"U","SEMIMAJOR_AXIS":"6925.351","APOAPSIS":"548.145","GP_ID":"212842718","MEAN_MOTION":"15.06399336","MEAN_MOTION_DDOT":"0.0000000000000","LAUNCH_DATE":"2021-05-04","REV_AT_EPOCH":"7650","COUNTRY_CODE":"US","PERIAPSIS":"546.286","SITE":"AFETR","DECAY_DATE":null,"TLE_LINE2":"2 48368  53.0540 288.1762 0001342  69.8682 290.2451 15.06399336 76507","EPOCH":"2022-09-17T19:11:29.203584","MEAN_ANOMALY":"290.2451","INCLINATION":"53.0540","RCS_SIZE":"LARGE","REF_FRAME":"TEME","TLE_LINE1":"1 48368U 21038R   22260.79964356  .00000879  00000-0  77918-4 0  9994","OBJECT_ID":"2021-038R","ECCENTRICITY":"0.00013420","OBJECT_NAME":"STARLINK-2623","ARG_OF_PERICENTER":"69.8682","MEAN_MOTION_DOT":"0.00000879","OBJECT_TYPE":"PAYLOAD","ELEMENT_SET_NO":"999","BSTAR":"0.00007791800000","RA_OF_ASC_NODE":"288.1762","NORAD_CAT_ID":"48368","CENTER_NAME":"EARTH","PERIOD":"95.592","EPHEMERIS_TYPE":"0","TIME_SYSTEM":"UTC","MEAN_ELEMENT_THEORY":"SGP4","FILE":"3576424"},{"OBJECT_NAME":"STARLINK-2641","ARG_OF_PERICENTER":"71.2585","MEAN_MOTION_DOT":"0.00000549","TLE_LINE1":"1 48369U 21038S   22260.88438855  .00000549  00000-0  55788-4 0  9990","REF_FRAME":"TEME","OBJECT_ID":"2021-038S","ECCENTRICITY":"0.00016590","PERIOD":"95.592","EPHEMERIS_TYPE":"0","MEAN_ELEMENT_THEORY":"SGP4","FILE":"3576621","TIME_SYSTEM":"UTC","OBJECT_TYPE":"PAYLOAD","ELEMENT_SET_NO":"999","BSTAR":"0.00005578800000","RA_OF_ASC_NODE":"287.5179","CENTER_NAME":"EARTH","NORAD_CAT_ID":"48369","GP_ID":"212869496","MEAN_MOTION":"15.06399917","LAUNCH_DATE":"2021-05-04","REV_AT_EPOCH":"7592","MEAN_MOTION_DDOT":"0.0000000000000","SEMIMAJOR_AXIS":"6925.349","CLASSIFICATION_TYPE":"U","APOAPSIS":"548.363","EPOCH":"2022-09-17T21:13:31.170720","MEAN_ANOMALY":"288.8584","INCLINATION":"53.0530","RCS_SIZE":"LARGE","COUNTRY_CODE":"US","SITE":"AFETR","DECAY_DATE":null,"PERIAPSIS":"546.065","TLE_LINE2":"2 48369  53.0530 287.5179 0001659  71.2585 288.8584 15.06399917 75922"},{"SEMIMAJOR_AXIS":"6925.335","CLASSIFICATION_TYPE":"U","APOAPSIS":"548.206","MEAN_MOTION":"15.06404349","GP_ID":"212812765","LAUNCH_DATE":"2021-05-04","MEAN_MOTION_DDOT":"0.0000000000000","REV_AT_EPOCH":"7586","SITE":"AFETR","DECAY_DATE":null,"PERIAPSIS":"546.194","COUNTRY_CODE":"US","TLE_LINE2":"2 48370  53.0538 289.3175 0001453  71.3433 288.7714 15.06404349 75866","MEAN_ANOMALY":"288.7714","INCLINATION":"53.0538","EPOCH":"2022-09-17T11:34:58.448352","RCS_SIZE":"LARGE","OBJECT_ID":"2021-038T","TLE_LINE1":"1 48370U 21038T   22260.48262093  .00002386  00000-0  17897-3 0  9996","REF_FRAME":"TEME","ECCENTRICITY":"0.00014530","MEAN_MOTION_DOT":"0.00002386","ARG_OF_PERICENTER":"71.3433","OBJECT_NAME":"STARLINK-2621","ELEMENT_SET_NO":"999","BSTAR":"0.00017897000000","OBJECT_TYPE":"PAYLOAD","CENTER_NAME":"EARTH","NORAD_CAT_ID":"48370","RA_OF_ASC_NODE":"289.3175","EPHEMERIS_TYPE":"0","PERIOD":"95.592","FILE":"3576375","MEAN_ELEMENT_THEORY":"SGP4","TIME_SYSTEM":"UTC"},{"REF_FRAME":"TEME","TLE_LINE1":"1 48371U 21038U   22260.54528493  .00002088  00000-0  15901-3 0  9996","OBJECT_ID":"2021-038U","ECCENTRICITY":"0.00013790","OBJECT_NAME":"STARLINK-2589","ARG_OF_PERICENTER":"81.7250","MEAN_MOTION_DOT":"0.00002088","OBJECT_TYPE":"PAYLOAD","ELEMENT_SET_NO":"999","BSTAR":"0.00015901000000","RA_OF_ASC_NODE":"289.0440","NORAD_CAT_ID":"48371","CENTER_NAME":"EARTH","PERIOD":"95.592","EPHEMERIS_TYPE":"0","TIME_SYSTEM":"UTC","MEAN_ELEMENT_THEORY":"SGP4","FILE":"3576621","CLASSIFICATION_TYPE":"U","SEMIMAJOR_AXIS":"6925.341","APOAPSIS":"548.161","GP_ID":"212868998","MEAN_MOTION":"15.06402541","LAUNCH_DATE":"2021-05-04","REV_AT_EPOCH":"7587","MEAN_MOTION_DDOT":"0.0000000000000","COUNTRY_CODE":"US","PERIAPSIS":"546.251","DECAY_DATE":null,"SITE":"AFETR","TLE_LINE2":"2 48371  53.0525 289.0440 0001379  81.7250 278.3895 15.06402541 75872","EPOCH":"2022-09-17T13:05:12.617952","INCLINATION":"53.0525","MEAN_ANOMALY":"278.3895","RCS_SIZE":"LARGE"},{"APOAPSIS":"548.214","CLASSIFICATION_TYPE":"U","SEMIMAJOR_AXIS":"6925.368","LAUNCH_DATE":"2021-05-04","REV_AT_EPOCH":"7585","MEAN_MOTION_DDOT":"0.0000000000000","MEAN_MOTION":"15.06393648","GP_ID":"212812275","TLE_LINE2":"2 48372  53.0533 289.6553 0001416  74.3634 285.7511 15.06393648 75851","PERIAPSIS":"546.252","DECAY_DATE":null,"SITE":"AFETR","COUNTRY_CODE":"US","RCS_SIZE":"LARGE","INCLINATION":"53.0533","MEAN_ANOMALY":"285.7511","EPOCH":"2022-09-17T09:48:49.374720","ECCENTRICITY":"0.00014160","OBJECT_ID":"2021-038V","REF_FRAME":"TEME","TLE_LINE1":"1 48372U 21038V   22260.40890480  .00000685  00000-0  64887-4 0  9999","MEAN_MOTION_DOT":"0.00000685","OBJECT_NAME":"STARLINK-2572","ARG_OF_PERICENTER":"74.3634","NORAD_CAT_ID":"48372","CENTER_NAME":"EARTH","RA_OF_ASC_NODE":"289.6553","BSTAR":"0.00006488700000","ELEMENT_SET_NO":"999","OBJECT_TYPE":"PAYLOAD","TIME_SYSTEM":"UTC","MEAN_ELEMENT_THEORY":"SGP4","FILE":"3576375","EPHEMERIS_TYPE":"0","PERIOD":"95.593"}];
